ONEWEB-0210             
1 48787U 21045W   25185.95036816 -.00000055  00000+0 -18103-3 0  9992
2 48787  87.9062 328.3983 0002409 110.6809 249.4579 13.15548903199798
ONEWEB-0214             
1 48788U 21045X   25185.88381010 -.00000075  00000+0 -23417-3 0  9990
2 48788  87.9062 328.4004 0002088 110.2357 249.8998 13.15549815198624
ONEWEB-0221             
1 48789U 21045Y   25185.89015563 -.00000104  00000+0 -31133-3 0  9996
2 48789  87.9066 328.4279 0002096  94.8838 265.2531 13.15549028199850
ONEWEB-0213             
1 48790U 21045Z   25185.87905657 -.00000096  00000+0 -28808-3 0  9993
2 48790  87.9064 328.4371 0002143 101.5504 258.5867 13.15549540198778
ONEWEB-0212             
1 48791U 21045AA  25185.93214914  .00000129  00000+0  30749-3 0  9992
2 48791  87.9058 328.4104 0001873  95.3189 264.8155 13.15547685198772
ONEWEB-0227             
1 48792U 21045AB  25185.93134687  .00000118  00000+0  27895-3 0  9997
2 48792  87.9065 328.4289 0002013  96.7576 263.3783 13.15549053198724
ONEWEB-0226             
1 48793U 21045AC  25185.92501119  .00000099  00000+0  22879-3 0  9990
2 48793  87.9065 328.4339 0002154 105.7900 254.3468 13.15547494198692
ONEWEB-0224             
1 48794U 21045AD  25185.88856013 -.00000085  00000+0 -26076-3 0  9992
2 48794  87.9068 328.4780 0002574  79.5475 280.5945 13.15549368198612
